[{"OBJECT_NAME":"HULIANWANG DIGUI-145","OBJECT_ID":"2026-007J","EPOCH":"2026-03-03T08:05:24.429120","MEAN_MOTION":13.44957016,"ECCENTRICITY":0.0002394,"INCLINATION":50.0026,"RA_OF_ASC_NODE":105.7349,"ARG_OF_PERICENTER":195.2425,"MEAN_ANOMALY":164.8382,"EPHEMERIS_TYPE":0,"CLASSIFICATION_TYPE":"U","NORAD_CAT_ID":67443,"ELEMENT_SET_NO":999,"REV_AT_EPOCH":670,"BSTAR":0.00017986,"MEAN_MOTION_DOT":-2.3e-7,"MEAN_MOTION_DDOT":0}]
